[{"OBJECT_NAME":"COSMOS 2361","OBJECT_ID":"1998-076A","EPOCH":"2026-04-05T20:47:32.214048","MEAN_MOTION":13.73230782,"ECCENTRICITY":0.0030417,"INCLINATION":82.9305,"RA_OF_ASC_NODE":259.6811,"ARG_OF_PERICENTER":309.8897,"MEAN_ANOMALY":160.446,"EPHEMERIS_TYPE":0,"CLASSIFICATION_TYPE":"U","NORAD_CAT_ID":25590,"ELEMENT_SET_NO":999,"REV_AT_EPOCH":36677,"BSTAR":4.3617e-5,"MEAN_MOTION_DOT":5.5e-7,"MEAN_MOTION_DDOT":0},{"OBJECT_NAME":"COSMOS 2378","OBJECT_ID":"2001-023A","EPOCH":"2026-04-05T18:06:52.020000","MEAN_MOTION":13.74153833,"ECCENTRICITY":0.0031764,"INCLINATION":82.9226,"RA_OF_ASC_NODE":275.1913,"ARG_OF_PERICENTER":248.7976,"MEAN_ANOMALY":121.5584,"EPHEMERIS_TYPE":0,"CLASSIFICATION_TYPE":"U","NORAD_CAT_ID":26818,"ELEMENT_SET_NO":999,"REV_AT_EPOCH":24489,"BSTAR":4.8602e-5,"MEAN_MOTION_DOT":6.1e-7,"MEAN_MOTION_DDOT":0},{"OBJECT_NAME":"COSMOS 2389","OBJECT_ID":"2002-026A","EPOCH":"2026-04-05T20:50:25.661184","MEAN_MOTION":13.75167155,"ECCENTRICITY":0.0047669,"INCLINATION":82.9519,"RA_OF_ASC_NODE":222.4959,"ARG_OF_PERICENTER":101.3429,"MEAN_ANOMALY":13.1635,"EPHEMERIS_TYPE":0,"CLASSIFICATION_TYPE":"U","NORAD_CAT_ID":27436,"ELEMENT_SET_NO":999,"REV_AT_EPOCH":19717,"BSTAR":6.9317e-5,"MEAN_MOTION_DOT":8.3e-7,"MEAN_MOTION_DDOT":0},{"OBJECT_NAME":"COSMOS 2398","OBJECT_ID":"2003-023A","EPOCH":"2026-04-05T19:37:48.274176","MEAN_MOTION":13.72398085,"ECCENTRICITY":0.0032124,"INCLINATION":82.9521,"RA_OF_ASC_NODE":188.6383,"ARG_OF_PERICENTER":153.9745,"MEAN_ANOMALY":327.9865,"EPHEMERIS_TYPE":0,"CLASSIFICATION_TYPE":"U","NORAD_CAT_ID":27818,"ELEMENT_SET_NO":999,"REV_AT_EPOCH":14381,"BSTAR":7.497e-5,"MEAN_MOTION_DOT":8.4e-7,"MEAN_MOTION_DDOT":0},{"OBJECT_NAME":"COSMOS 2407","OBJECT_ID":"2004-028A","EPOCH":"2026-04-05T19:50:38.510304","MEAN_MOTION":13.76328415,"ECCENTRICITY":0.0040708,"INCLINATION":82.9583,"RA_OF_ASC_NODE":128.4324,"ARG_OF_PERICENTER":94.7158,"MEAN_ANOMALY":78.4132,"EPHEMERIS_TYPE":0,"CLASSIFICATION_TYPE":"U","NORAD_CAT_ID":28380,"ELEMENT_SET_NO":999,"REV_AT_EPOCH":8992,"BSTAR":6.4142e-5,"MEAN_MOTION_DOT":7.9e-7,"MEAN_MOTION_DDOT":0},{"OBJECT_NAME":"COSMOS 2414","OBJECT_ID":"2005-002A","EPOCH":"2026-04-05T12:12:02.675520","MEAN_MOTION":13.87918659,"ECCENTRICITY":0.00402059,"INCLINATION":82.9453,"RA_OF_ASC_NODE":98.6246,"ARG_OF_PERICENTER":174.5632,"MEAN_ANOMALY":185.5976,"EPHEMERIS_TYPE":0,"CLASSIFICATION_TYPE":"U","NORAD_CAT_ID":28521,"ELEMENT_SET_NO":999,"REV_AT_EPOCH":7373,"BSTAR":3.0460541e-5,"MEAN_MOTION_DOT":5.2e-7,"MEAN_MOTION_DDOT":0},{"OBJECT_NAME":"COSMOS 2429","OBJECT_ID":"2007-038A","EPOCH":"2026-04-05T19:23:57.458688","MEAN_MOTION":13.75161092,"ECCENTRICITY":0.0039667,"INCLINATION":82.9769,"RA_OF_ASC_NODE":259.2215,"ARG_OF_PERICENTER":78.1513,"MEAN_ANOMALY":282.4088,"EPHEMERIS_TYPE":0,"CLASSIFICATION_TYPE":"U","NORAD_CAT_ID":32052,"ELEMENT_SET_NO":999,"REV_AT_EPOCH":93170,"BSTAR":5.4309e-5,"MEAN_MOTION_DOT":6.8e-7,"MEAN_MOTION_DDOT":0},{"OBJECT_NAME":"COSMOS 2454","OBJECT_ID":"2009-039A","EPOCH":"2026-04-05T11:59:43.986624","MEAN_MOTION":13.89944672,"ECCENTRICITY":0.00205902,"INCLINATION":82.9527,"RA_OF_ASC_NODE":82.3927,"ARG_OF_PERICENTER":105.7704,"MEAN_ANOMALY":10.4562,"EPHEMERIS_TYPE":0,"CLASSIFICATION_TYPE":"U","NORAD_CAT_ID":35635,"ELEMENT_SET_NO":999,"REV_AT_EPOCH":84730,"BSTAR":5.2157928e-5,"MEAN_MOTION_DOT":8.0e-7,"MEAN_MOTION_DDOT":0},{"OBJECT_NAME":"COSMOS 2463","OBJECT_ID":"2010-017A","EPOCH":"2026-04-05T19:38:17.410848","MEAN_MOTION":13.71660703,"ECCENTRICITY":0.0035555,"INCLINATION":82.958,"RA_OF_ASC_NODE":302.8964,"ARG_OF_PERICENTER":332.8244,"MEAN_ANOMALY":37.8858,"EPHEMERIS_TYPE":0,"CLASSIFICATION_TYPE":"U","NORAD_CAT_ID":36519,"ELEMENT_SET_NO":999,"REV_AT_EPOCH":79801,"BSTAR":4.9654e-5,"MEAN_MOTION_DOT":6.0e-7,"MEAN_MOTION_DDOT":0}]
