COSMOS 2361             
1 25590U 98076A   26095.86634507  .00000055  00000+0  43617-4 0  9996
2 25590  82.9305 259.6811 0030417 309.8897 160.4460 13.73230782366777
COSMOS 2378             
1 26818U 01023A   26095.75476875  .00000061  00000+0  48602-4 0  9992
2 26818  82.9226 275.1913 0031764 248.7976 121.5584 13.74153833244899
COSMOS 2389             
1 27436U 02026A   26095.86835256  .00000083  00000+0  69317-4 0  9997
2 27436  82.9519 222.4959 0047669 101.3429  13.1635 13.75167155197178
COSMOS 2398             
1 27818U 03023A   26095.81791984  .00000084  00000+0  74970-4 0  9995
2 27818  82.9521 188.6383 0032124 153.9745 327.9865 13.72398085143811
COSMOS 2407             
1 28380U 04028A   26095.82683461  .00000079  00000+0  64142-4 0  9991
2 28380  82.9583 128.4324 0040708  94.7158  78.4132 13.76328415 89928
COSMOS 2414             
1 28521U 05002A   26095.50836430  .00000052  00000+0  30461-4 0  9990
2 28521  82.9453  98.6246 0040205 174.5632 185.5976 13.87918659 73733
COSMOS 2429             
1 32052U 07038A   26095.80830392  .00000068  00000+0  54309-4 0  9993
2 32052  82.9769 259.2215 0039667  78.1513 282.4088 13.75161092931704
COSMOS 2454             
1 35635U 09039A   26095.49981466  .00000080  00000+0  52158-4 0  9994
2 35635  82.9527  82.3927 0020590 105.7704  10.4562 13.89944672847301
COSMOS 2463             
1 36519U 10017A   26095.81825707  .00000060  00000+0  49654-4 0  9990
2 36519  82.9580 302.8964 0035555 332.8244  37.8858 13.71660703798017
